{"type": "FeatureCollection", "features": [ {"type": "Feature", "properties": {"norad_id": 64901, "name": "CO3D 4", "group": "resource", "lat": -54.436336505707004, "lon": 65.42010396906413, "alt_km": 512.0896622789751, "timestamp": "2025-12-04T09:47:37.180760+00:00", "meta": {"OBJECT_NAME": "CO3D 4", "OBJECT_ID": "2025-156C", "EPOCH": "2025-12-01T18:50:45.474720", "MEAN_MOTION": 15.20204195, "ECCENTRICITY": 0.00012108, "INCLINATION": 97.4354, "RA_OF_ASC_NODE": 52.3098, "ARG_OF_PERICENTER": 238.3057, "MEAN_ANOMALY": 121.806, "EPHEMERIS_TYPE": 0, "CLASSIFICATION_TYPE": "U", "NORAD_CAT_ID": 64901, "ELEMENT_SET_NO": 999, "REV_AT_EPOCH": 1954, "BSTAR": -1.4420799e-05, "MEAN_MOTION_DOT": -3.8e-06, "MEAN_MOTION_DDOT": 0}, "tle": {"line1": "1 64901U 25156C   25335.78524855 -.00000380  00000+0 -14421-4 0  9999", "line2": "2 64901  97.4354  52.3098 0001210 238.3057 121.8060 15.20204195 19549"}}, "geometry": {"type": "Point", "coordinates": [65.42010396906413, -54.436336505707004]}}, {"type": "Feature", "properties": {"norad_id": 64902, "name": "CO3D 2", "group": "resource", "lat": 52.00567338120023, "lon": -115.58172971571074, "alt_km": 499.83006548832054, "timestamp": "2025-12-04T09:47:37.180770+00:00", "meta": {"OBJECT_NAME": "CO3D 2", "OBJECT_ID": "2025-156D", "EPOCH": "2025-12-03T22:10:38.570592", "MEAN_MOTION": 15.20186535, "ECCENTRICITY": 9.476e-05, "INCLINATION": 97.435, "RA_OF_ASC_NODE": 54.3172, "ARG_OF_PERICENTER": 107.1395, "MEAN_ANOMALY": 252.9944, "EPHEMERIS_TYPE": 0, "CLASSIFICATION_TYPE": "U", "NORAD_CAT_ID": 64902, "ELEMENT_SET_NO": 999, "REV_AT_EPOCH": 1986, "BSTAR": 0.00082266601, "MEAN_MOTION_DOT": 0.00017776, "MEAN_MOTION_DDOT": 0}, "tle": {"line1": "1 64902U 25156D   25337.92405753  .00017776  00000+0  82267-3 0  9990", "line2": "2 64902  97.4350  54.3172 0000947 107.1395 252.9944 15.20186535 19864"}}, "geometry": {"type": "Point", "coordinates": [-115.58172971571074, 52.00567338120023]}}, {"type": "Feature", "properties": {"norad_id": 64903, "name": "CO3D 1", "group": "resource", "lat": 52.79773371120759, "lon": -115.2993604811737, "alt_km": 499.5677424089017, "timestamp": "2025-12-04T09:47:37.180780+00:00", "meta": {"OBJECT_NAME": "CO3D 1", "OBJECT_ID": "2025-156E", "EPOCH": "2025-12-03T22:10:51.974688", "MEAN_MOTION": 15.20211436, "ECCENTRICITY": 0.00010358, "INCLINATION": 97.4353, "RA_OF_ASC_NODE": 54.3173, "ARG_OF_PERICENTER": 115.7512, "MEAN_ANOMALY": 244.383, "EPHEMERIS_TYPE": 0, "CLASSIFICATION_TYPE": "U", "NORAD_CAT_ID": 64903, "ELEMENT_SET_NO": 999, "REV_AT_EPOCH": 1986, "BSTAR": 0.00066619195, "MEAN_MOTION_DOT": 0.00014386, "MEAN_MOTION_DDOT": 0}, "tle": {"line1": "1 64903U 25156E   25337.92421267  .00014386  00000+0  66619-3 0  9996", "line2": "2 64903  97.4353  54.3173 0001035 115.7512 244.3830 15.20211436 19862"}}, "geometry": {"type": "Point", "coordinates": [-115.2993604811737, 52.79773371120759]}}, {"type": "Feature", "properties": {"norad_id": 66514, "name": "SENTINEL-6B", "group": "resource", "lat": 45.09215725679281, "lon": -26.678760398112818, "alt_km": 1319.8371959733295, "timestamp": "2025-12-04T09:47:37.180790+00:00", "meta": {"OBJECT_NAME": "SENTINEL-6B", "OBJECT_ID": "2025-264A", "EPOCH": "2025-12-03T21:55:25.872096", "MEAN_MOTION": 12.85877574, "ECCENTRICITY": 0.0011544, "INCLINATION": 66.039, "RA_OF_ASC_NODE": 180.8509, "ARG_OF_PERICENTER": 268.5805, "MEAN_ANOMALY": 91.389, "EPHEMERIS_TYPE": 0, "CLASSIFICATION_TYPE": "U", "NORAD_CAT_ID": 66514, "ELEMENT_SET_NO": 999, "REV_AT_EPOCH": 215, "BSTAR": 0.00031328, "MEAN_MOTION_DOT": 1.5e-07, "MEAN_MOTION_DDOT": 0}, "tle": {"line1": "1 66514U 25264A   25337.91349389  .00000015  00000+0  31328-3 0  9992", "line2": "2 66514  66.0390 180.8509 0011544 268.5805  91.3890 12.85877574  2150"}}, "geometry": {"type": "Point", "coordinates": [-26.678760398112818, 45.09215725679281]}}]}